KUIPER-00251            
1 67156U 25301Z   26004.62352027  .00025110  00000+0  73611-3 0  9994
2 67156  51.8675  14.8663 0009030 163.7258 196.4019 15.35004951  4075
KUIPER-00252            
1 67157U 25301AA  26004.62977011  .00023863  00000+0  70740-3 0  9994
2 67157  51.8664  14.9057 0009926 175.9914 184.1153 15.34675323  3887
KUIPER-00261            
1 67158U 25301AB  26004.61493915  .00020930  00000+0  59957-3 0  9999
2 67158  51.8706  14.8135 0006357 148.6430 211.4937 15.35860259  3885
KUIPER-00265            
1 67159U 25301AC  26004.58335648 -.00657133  00000+0 -20502-1 0  9999
2 67159  51.8751  14.8466 0000799  88.6051 158.6682 15.35001134  3900
